CENTAURI-1              
1 43809U 18099BD  26199.67977689  .00002650  00000+0  13862-3 0  9992
2 43809  97.4200 250.7260 0013291 212.0039 148.0388 15.16643434417273
CENTAURI-6              
1 59451U 24066K   26199.71029067  .00002287  00000+0  17089-3 0  9997
2 59451  45.6065  89.8332 0001711 255.5798 104.4896 15.06053052124877
CENTAURI-7              
1 62708U 25009DD  26199.79199661  .00001064  00000+0  95111-4 0  9995
2 62708  97.7096 279.6680 0002543  96.3899 263.7613 14.97984806 82193
CENTAURI-8              
1 62714U 25009DK  26199.75399550  .00001438  00000+0  12692-3 0  9994
2 62714  97.7035 279.4483 0002483  76.9006 283.2493 14.97936763 82203
