{"fetched_at":"2026-07-19T07:05:04.797Z","source":"https://celestrak.org/NORAD/elements/gp.php?NAME=CENTAURI&FORMAT=JSON","constellation":"myriota","records":[{"OBJECT_NAME":"CENTAURI-1","OBJECT_ID":"2018-099BD","EPOCH":"2026-07-18T16:18:52.723296","CLASSIFICATION_TYPE":"U","MEAN_MOTION":15.16643434,"ECCENTRICITY":0.0013291,"INCLINATION":97.42,"RA_OF_ASC_NODE":250.726,"ARG_OF_PERICENTER":212.0039,"MEAN_ANOMALY":148.0388,"EPHEMERIS_TYPE":0,"NORAD_CAT_ID":43809,"ELEMENT_SET_NO":999,"REV_AT_EPOCH":41727,"BSTAR":0.00013862,"MEAN_MOTION_DOT":0.0000265,"MEAN_MOTION_DDOT":0},{"OBJECT_NAME":"CENTAURI-6","OBJECT_ID":"2024-066K","EPOCH":"2026-07-18T17:02:49.113888","CLASSIFICATION_TYPE":"U","MEAN_MOTION":15.06053052,"ECCENTRICITY":0.0001711,"INCLINATION":45.6065,"RA_OF_ASC_NODE":89.8332,"ARG_OF_PERICENTER":255.5798,"MEAN_ANOMALY":104.4896,"EPHEMERIS_TYPE":0,"NORAD_CAT_ID":59451,"ELEMENT_SET_NO":999,"REV_AT_EPOCH":12487,"BSTAR":0.00017089,"MEAN_MOTION_DOT":0.00002287,"MEAN_MOTION_DDOT":0},{"OBJECT_NAME":"CENTAURI-7","OBJECT_ID":"2025-009DD","EPOCH":"2026-07-18T19:00:28.507104","CLASSIFICATION_TYPE":"U","MEAN_MOTION":14.97984806,"ECCENTRICITY":0.0002543,"INCLINATION":97.7096,"RA_OF_ASC_NODE":279.668,"ARG_OF_PERICENTER":96.3899,"MEAN_ANOMALY":263.7613,"EPHEMERIS_TYPE":0,"NORAD_CAT_ID":62708,"ELEMENT_SET_NO":999,"REV_AT_EPOCH":8219,"BSTAR":0.000095111,"MEAN_MOTION_DOT":0.00001064,"MEAN_MOTION_DDOT":0},{"OBJECT_NAME":"CENTAURI-8","OBJECT_ID":"2025-009DK","EPOCH":"2026-07-18T18:05:45.211200","CLASSIFICATION_TYPE":"U","MEAN_MOTION":14.97936763,"ECCENTRICITY":0.0002483,"INCLINATION":97.7035,"RA_OF_ASC_NODE":279.4483,"ARG_OF_PERICENTER":76.9006,"MEAN_ANOMALY":283.2493,"EPHEMERIS_TYPE":0,"NORAD_CAT_ID":62714,"ELEMENT_SET_NO":999,"REV_AT_EPOCH":8220,"BSTAR":0.00012692,"MEAN_MOTION_DOT":0.00001438,"MEAN_MOTION_DDOT":0}]}
